{
  "type": "FeatureCollection",
  "features": [
    {
      "type": "Feature",
      "properties": {
        "norad_id": 36828,
        "name": "BEIDOU-2 IGSO-1 (C06)",
        "group": "beidou",
        "lat": -43.40098292919623,
        "lon": 27.65889671580322,
        "alt_km": 35589.560790036034,
        "timestamp": "2025-12-06T14:35:37.390839+00:00",
        "meta_object_name": "BEIDOU-2 IGSO-1 (C06)",
        "meta_object_id": "2010-036A",
        "meta_epoch": "2025-12-05T22:34:51.695904",
        "meta_mean_motion": 1.00277976,
        "meta_eccentricity": 0.0051236,
        "meta_inclination": 54.2851,
        "meta_ra_of_asc_node": 164.7095,
        "meta_arg_of_pericenter": 215.8121,
        "meta_mean_anomaly": 140.9806,
        "meta_ephemeris_type": 0,
        "meta_classification_type": "U",
        "meta_norad_cat_id": 36828,
        "meta_element_set_no": 999,
        "meta_rev_at_epoch": 5615,
        "meta_bstar": 0,
        "meta_mean_motion_dot": -5.1e-07,
        "meta_mean_motion_ddot": 0,
        "tle_line1": "1 36828U 10036A   25339.94087611 -.00000051  00000+0  00000+0 0  9990",
        "tle_line2": "2 36828  54.2851 164.7095 0051236 215.8121 140.9806  1.00277976 56157"
      },
      "geometry": {
        "type": "Point",
        "coordinates": [
          27.65889671580322,
          -43.40098292919623
        ]
      }
    },
    {
      "type": "Feature",
      "properties": {
        "norad_id": 37210,
        "name": "BEIDOU-2 G4 (C04)",
        "group": "beidou",
        "lat": 1.3433956313506126,
        "lon": 94.54935160884231,
        "alt_km": 35830.87562793729,
        "timestamp": "2025-12-06T14:35:37.390873+00:00",
        "meta_object_name": "BEIDOU-2 G4 (C04)",
        "meta_object_id": "2010-057A",
        "meta_epoch": "2025-12-06T05:52:04.388736",
        "meta_mean_motion": 1.00271337,
        "meta_eccentricity": 0.00109581,
        "meta_inclination": 3.1677,
        "meta_ra_of_asc_node": 69.9541,
        "meta_arg_of_pericenter": 189.5357,
        "meta_mean_anomaly": 63.8885,
        "meta_ephemeris_type": 0,
        "meta_classification_type": "U",
        "meta_norad_cat_id": 37210,
        "meta_element_set_no": 999,
        "meta_rev_at_epoch": 5535,
        "meta_bstar": 0,
        "meta_mean_motion_dot": -1.05e-06,
        "meta_mean_motion_ddot": 0,
        "tle_line1": "1 37210U 10057A   25340.24449524 -.00000105  00000+0  00000+0 0  9999",
        "tle_line2": "2 37210   3.1677  69.9541 0010958 189.5357  63.8885  1.00271337 55354"
      },
      "geometry": {
        "type": "Point",
        "coordinates": [
          94.54935160884231,
          1.3433956313506126
        ]
      }
    },
    {
      "type": "Feature",
      "properties": {
        "norad_id": 37256,
        "name": "BEIDOU-2 IGSO-2 (C07)",
        "group": "beidou",
        "lat": 36.302971032969054,
        "lon": 52.677946325639944,
        "alt_km": 35772.63304293243,
        "timestamp": "2025-12-06T14:35:37.390900+00:00",
        "meta_object_name": "BEIDOU-2 IGSO-2 (C07)",
        "meta_object_id": "2010-068A",
        "meta_epoch": "2025-12-03T17:22:36.030432",
        "meta_mean_motion": 1.0028871,
        "meta_eccentricity": 0.00492335,
        "meta_inclination": 47.9043,
        "meta_ra_of_asc_node": 274.2613,
        "meta_arg_of_pericenter": 216.1442,
        "meta_mean_anomaly": 310.2369,
        "meta_ephemeris_type": 0,
        "meta_classification_type": "U",
        "meta_norad_cat_id": 37256,
        "meta_element_set_no": 999,
        "meta_rev_at_epoch": 5483,
        "meta_bstar": 0,
        "meta_mean_motion_dot": -2.25e-06,
        "meta_mean_motion_ddot": 0,
        "tle_line1": "1 37256U 10068A   25337.72402813 -.00000225  00000+0  00000+0 0  9993",
        "tle_line2": "2 37256  47.9043 274.2613 0049233 216.1442 310.2369  1.00288710 54839"
      },
      "geometry": {
        "type": "Point",
        "coordinates": [
          52.677946325639944,
          36.302971032969054
        ]
      }
    },
    {
      "type": "Feature",
      "properties": {
        "norad_id": 37384,
        "name": "BEIDOU-2 IGSO-3 (C08)",
        "group": "beidou",
        "lat": 0.17633986215547037,
        "lon": 42.107608879811806,
        "alt_km": 35935.34679705858,
        "timestamp": "2025-12-06T14:35:37.390927+00:00",
        "meta_object_name": "BEIDOU-2 IGSO-3 (C08)",
        "meta_object_id": "2011-013A",
        "meta_epoch": "2025-12-03T14:52:09.520896",
        "meta_mean_motion": 1.00272128,
        "meta_eccentricity": 0.00353922,
        "meta_inclination": 62.1308,
        "meta_ra_of_asc_node": 42.005,
        "meta_arg_of_pericenter": 186.5359,
        "meta_mean_anomaly": 174.9093,
        "meta_ephemeris_type": 0,
        "meta_classification_type": "U",
        "meta_norad_cat_id": 37384,
        "meta_element_set_no": 999,
        "meta_rev_at_epoch": 5370,
        "meta_bstar": 0,
        "meta_mean_motion_dot": -1.99e-06,
        "meta_mean_motion_ddot": 0,
        "tle_line1": "1 37384U 11013A   25337.61955464 -.00000199  00000+0  00000+0 0  9999",
        "tle_line2": "2 37384  62.1308  42.0050 0035392 186.5359 174.9093  1.00272128 53708"
      },
      "geometry": {
        "type": "Point",
        "coordinates": [
          42.107608879811806,
          0.17633986215547037
        ]
      }
    },
    {
      "type": "Feature",
      "properties": {
        "norad_id": 37763,
        "name": "BEIDOU-2 IGSO-4 (C09)",
        "group": "beidou",
        "lat": -32.34177085712786,
        "lon": 14.229219715665588,
        "alt_km": 35166.97242826889,
        "timestamp": "2025-12-06T14:35:37.390952+00:00",
        "meta_object_name": "BEIDOU-2 IGSO-4 (C09)",
        "meta_object_id": "2011-038A",
        "meta_epoch": "2025-12-01T12:32:09.960864",
        "meta_mean_motion": 1.00284074,
        "meta_eccentricity": 0.01487808,
        "meta_inclination": 54.5808,
        "meta_ra_of_asc_node": 167.4476,
        "meta_arg_of_pericenter": 230.2031,
        "meta_mean_anomaly": 315.0387,
        "meta_ephemeris_type": 0,
        "meta_classification_type": "U",
        "meta_norad_cat_id": 37763,
        "meta_element_set_no": 999,
        "meta_rev_at_epoch": 5266,
        "meta_bstar": 0,
        "meta_mean_motion_dot": 1.01e-06,
        "meta_mean_motion_ddot": 0,
        "tle_line1": "1 37763U 11038A   25335.52233751  .00000101  00000+0  00000+0 0  9995",
        "tle_line2": "2 37763  54.5808 167.4476 0148780 230.2031 315.0387  1.00284074 52664"
      },
      "geometry": {
        "type": "Point",
        "coordinates": [
          14.229219715665588,
          -32.34177085712786
        ]
      }
    },
    {
      "type": "Feature",
      "properties": {
        "norad_id": 37948,
        "name": "BEIDOU-2 IGSO-5 (C10)",
        "group": "beidou",
        "lat": 43.601398610686054,
        "lon": 35.119662577536474,
        "alt_km": 35930.30456556561,
        "timestamp": "2025-12-06T14:35:37.390980+00:00",
        "meta_object_name": "BEIDOU-2 IGSO-5 (C10)",
        "meta_object_id": "2011-073A",
        "meta_epoch": "2025-12-05T19:16:03.972000",
        "meta_mean_motion": 1.00291877,
        "meta_eccentricity": 0.01105894,
        "meta_inclination": 48.0339,
        "meta_ra_of_asc_node": 273.9433,
        "meta_arg_of_pericenter": 222.1593,
        "meta_mean_anomaly": 320.3155,
        "meta_ephemeris_type": 0,
        "meta_classification_type": "U",
        "meta_norad_cat_id": 37948,
        "meta_element_set_no": 999,
        "meta_rev_at_epoch": 5119,
        "meta_bstar": 0,
        "meta_mean_motion_dot": -1.79e-06,
        "meta_mean_motion_ddot": 0,
        "tle_line1": "1 37948U 11073A   25339.80282375 -.00000179  00000+0  00000+0 0  9996",
        "tle_line2": "2 37948  48.0339 273.9433 0110589 222.1593 320.3155  1.00291877 51199"
      },
      "geometry": {
        "type": "Point",
        "coordinates": [
          35.119662577536474,
          43.601398610686054
        ]
      }
    },
    {
      "type": "Feature",
      "properties": {
        "norad_id": 38091,
        "name": "BEIDOU-2 G5 (C05)",
        "group": "beidou",
        "lat": -3.012618523504528,
        "lon": -6.596299266223684,
        "alt_km": 35757.15101282575,
        "timestamp": "2025-12-06T14:35:37.391007+00:00",
        "meta_object_name": "BEIDOU-2 G5 (C05)",
        "meta_object_id": "2012-008A",
        "meta_epoch": "2025-12-06T05:22:59.674656",
        "meta_mean_motion": 1.00273238,
        "meta_eccentricity": 0.00124834,
        "meta_inclination": 3.0923,
        "meta_ra_of_asc_node": 70.7281,
        "meta_arg_of_pericenter": 226.1461,
        "meta_mean_anomaly": 277.8607,
        "meta_ephemeris_type": 0,
        "meta_classification_type": "U",
        "meta_norad_cat_id": 38091,
        "meta_element_set_no": 999,
        "meta_rev_at_epoch": 5043,
        "meta_bstar": 0,
        "meta_mean_motion_dot": 6.3e-07,
        "meta_mean_motion_ddot": 0,
        "tle_line1": "1 38091U 12008A   25340.22430179  .00000063  00000+0  00000+0 0  9991",
        "tle_line2": "2 38091   3.0923  70.7281 0012483 226.1461 277.8607  1.00273238 50430"
      },
      "geometry": {
        "type": "Point",
        "coordinates": [
          -6.596299266223684,
          -3.012618523504528
        ]
      }
    }
  ]
}